#dP2021  1  8  0  0  0.00000000      96 __u+U ITR00 FIT  IAC
## 2139 432000.00000000   900.00000000 59222 0.0000000000000
+  116   C01C03C04C05C06C07C08C09C10C11C12C13C14C16C19C20C21
+        C22C23C24C25C26C27C28C29C30C32C33C34C35C36C37E01E02
+        E03E04E05E07E08E09E11E12E13E14E15E18E19E21E24E25E26
+        E27E30E31E33E36G01G02G03G04G05G06G07G08G09G10G11G12
+        G13G14G15G16G17G18G19G20G21G22G23G24G25G26G27G28G29
+        G30G31G32J01J02J03J07R01R02R03R04R05R06R07R08R09R10
+        R11R12R13R14R15R16R17R18R19R20R21R22R23R24  0  0  0
++         0  0 13 14  9  9  9  9  9  8  9  9  9  9  9  9  9
++         8  9  9  9  9  9  9  9  9  9  9  9 10  9  9  5  5
++         5  6  6  5  5  6  6  5  6  5  5  6  5  5  5  5  5
++         5  5  5  5  6  4  4  4  4  4  4  4  4  4  4  4  4
++         4  3  4  4  4  4  4  4  4  4  4  4  4  4  4  4  4
++         4  4  4 10  9  9 16  6  6  6  6  6 13  6  6  6 13
++         8  6  7  6  6  6  6  6  7  7  6  7 13  6  0  0  0
%c M  cc GPS ccc cccc cccc cccc cccc ccccc ccccc ccccc ccccc
%c cc cc ccc ccc cccc cccc cccc cccc ccccc ccccc ccccc ccccc
%f  0.0000000  0.000000000  0.00000000000  0.000000000000000
%f  0.0000000  0.000000000  0.00000000000  0.000000000000000
%i    0    0    0    0      0      0      0      0         0
%i    0    0    0    0      0      0      0      0         0
/* INFORMATION & ANALYSIS CENTER (IAC)            RAPID DATA
/* S/V CLOCKS ARE ALIGNED TO GNSS TIME                      
/* G:C1WC2W R:C1PC2P E:C1XC5X C:C2IC6I J:C1CC2S             
/* PCV:IGS14_2134 OL/AL:FES2004  NONE     YN ORB:CoN CLK:CoN
*  2021 01 08  4 30  0.00000000
PC01      0.000000      0.000000      0.000000 999999.999999
PC03      0.000000      0.000000      0.000000 999999.999999
PC04 -39643.537446  14353.924531   -623.638104   -359.644142
PC05  21926.146200  36009.575574    413.148278   -509.051728
PC06 -17084.715209  21683.167269  32173.142564    116.674392
PC07 -19436.176773  37597.344587  -2915.424023   -206.296696
PC08  -4079.586922  30305.482941 -28720.514668   -873.296548
PC09   1451.439235  24964.971024  34238.778667    818.292789
PC10  -9580.664930  38778.156881 -13930.471566   -107.998474
PC11  17901.733186  -8450.650289  19719.252709   -871.392914
PC12  27159.086582   3636.600342   5263.026657    715.864956
PC13   6413.917217  37541.817393 -17678.485270     88.357808
PC14  20222.603043 -19105.015412   1827.784245   -144.700820
PC16 -15771.331586  21564.539083  32653.453343   -653.188432
PC19 -14558.572447  22605.023314   7511.405049    683.013879
PC20 -22380.011510  13690.959032  -9534.126404   -909.324890
PC21  17147.414710   3897.817752  21676.440216   -784.190660
PC22   1872.054648  18667.133612  20663.373851   -837.975123
PC23  -8354.499501 -26591.223657   1483.461843   -883.669952
PC24  15295.119397  -5501.195147 -22694.497035   -738.723314
PC25   3938.301034 -23377.243111 -14748.473901   -889.658662
PC26  17036.195281  13558.163437 -17441.592800    966.055878
PC27 -25724.671393  -9961.896274   4138.496025    462.781718
PC28 -11778.551569 -16770.699602  18950.724680   -124.357450
PC29  -8489.221001  14066.051838 -22558.517286    335.613649
PC30 -24656.900539   3262.438440 -12632.225403    428.288045
PC32 -17178.028135  -3775.829395 -21656.847486   -882.328937
PC33  14501.786025 -22657.129168  -7400.553229   -904.758834
PC34  24363.079476  -3648.507458  13130.832922   -768.119325
PC35  12082.609805  16441.577138 -19051.172716   -475.897969
PC36  -4721.045073  23060.187489  15004.558309   -782.500039
PC37 -16576.680453 -14784.815739  16922.601013   -860.756539
PE01   1892.749452 -29038.134764   5462.424826  -1020.206705
PE02  -1811.963488  29002.220344  -5569.377692    189.458534
PE03  -2579.249426  18269.632886  23140.043384   -384.911656
PE04 -18054.218061  -9725.344404 -21347.074260   -684.374641
PE05 -21987.964172  16216.623514  11384.966660   -314.694494
PE07  28390.059651  -4724.772244   6899.379686   -484.872786
PE08  18315.758674   9313.504722  21296.806776   6065.263440
PE09 -28375.672727   5023.188934  -6798.719965   5806.302940
PE11 -23702.859628  -5662.759297 -16791.170365   6505.016954
PE12 -21888.371708 -19859.062910   1506.151070   5417.567340
PE13  23815.287405   5953.641634  16553.869854    409.859700
PE14  26170.036673   4188.855612  -6823.309418  -1287.210837
PE15  22014.416311  19736.213510  -1416.641533    835.320309
PE18 -27965.792703   7884.695915  -8274.769985  -1406.778895
PE19   5173.981975 -18505.825332 -22519.101218    172.978161
PE21  13073.183756 -23381.786339 -12605.929415   -641.657737
PE24 -17073.536150   3129.915328  23961.497527   -678.020002
PE25 -13153.402799  23239.835936  12763.428976   -523.877438
PE26  11190.491899 -11909.055230  24692.125238   2290.394763
PE27  17060.214250  -3959.417164 -23861.935327     55.667055
PE30  10577.492231  18389.287445 -20640.031428   3280.424277
PE31 -10999.702384 -17695.752818  21036.808299   -477.166738
PE33  -7241.636481 -21898.745620  18562.581705   -464.692893
PE36 -11618.012572  11297.988967 -24757.542038    457.161725
PG01  19641.862959  10647.332212  14378.982298    783.780872
PG02 -13133.414036 -22297.185764   6613.846741   -563.556662
PG03  16096.853911   -810.651437  21011.753158    -50.650376
PG04  25913.395471   1818.252103   5659.545184   -170.994331
PG05  -6525.974979 -18405.774895 -18072.926527    -30.420663
PG06  -1344.604669 -20581.214331  16772.965334     -4.647091
PG07  14970.372983  -4969.109169 -21095.734008     13.312719
PG08  22400.698975   6124.891576 -13144.856208     -5.806760
PG09  24769.267949  -7590.720948  -5969.281729   -310.399343
PG10 -11575.443042  23656.760640  -1916.171092    -34.291154
PG11  23897.326738  11081.281208    564.399134    -59.079435
PG12 -14462.621772  -3969.990240  21665.712139     15.943660
PG13 -13783.653911 -13093.389408 -18734.277350     83.537375
PG14  13833.795657 -22359.261772  -3762.073232     81.702418
PG15 -23464.518910  -4124.892673 -12465.933416   -177.818802
PG16   3712.912207  18989.591137 -18208.160192   -261.916068
PG17  12150.195010 -13783.641392  19606.831546    377.445396
PG18 -13015.266821   7711.543087 -21836.962934    339.587975
PG19   4272.432266 -14474.664584  21563.986519    -54.782903
PG20 -15069.947618  16910.186337 -13711.937192    525.261814
PG21  20678.881238  15373.924526   7990.099337     84.880865
PG22  13786.602303   8506.396925  21260.484700   -702.007196
PG23 -15996.705136  17505.425229 -11951.662604    115.072225
PG24 -20911.217354 -13216.937258   9942.621340      3.976522
PG25 -17261.922675  10868.786730  16609.276115     55.386384
PG26  -2955.297229  24857.961874  -8518.270051     26.652696
PG27  11269.353215  12721.505597 -20655.043286    -51.554616
PG28  12447.061701 -23576.264977    595.122525    632.644255
PG29 -25645.699914   4650.711258  -5266.065043   -271.622897
PG30   6977.335484 -15774.921719 -20098.930438   -365.432986
PG31   2738.318365  21751.016457  14581.891631    -92.556831
PG32 -10729.936586  14953.374158  19179.272911     13.085439
PJ01 -30014.586951  29662.870055   6528.818416   -335.984125
PJ02 -28070.930806  25604.408921  23177.776790      0.558296
PJ03 -28295.364337  17995.469520 -20828.711484     -5.480737
PJ07 -25401.197219  33649.416197      9.102898      0.048392
PR01 -21549.557032  12399.232134  -5734.845332     73.177559
PR02 -11944.558975  16893.526820  14910.899166    461.961089
PR03   4383.172859  10278.163906  22963.306955     28.748363
PR04  17887.560849  -2201.171960  18076.355355     69.067658
PR05  21553.912063 -13327.579884   3033.868704     64.344133
PR06  10707.748305 -17206.678400 -15522.823501    190.608901
PR07  -4851.767790  -9937.626917 -22957.075157    -42.086649
PR08 -17935.166414   2168.900938 -17949.133815    -56.737375
PR09   1528.892321 -24124.410345  -8030.884219     17.404038
PR10  -6547.117647 -23120.700191   8660.857218    -65.348882
PR11 -11039.484256  -8391.029534  21417.240950      4.773891
PR12  -8996.631497  11256.440253  21064.423094    194.872576
PR13  -1550.340869  23999.158099   8476.579121    -49.011257
PR14   6754.149777  22675.967211  -9532.025632     59.610143
PR15  11033.227328   8177.459955 -21476.259957    105.995361
PR16   8603.611103 -12474.092590 -20583.672376     -9.974208
PR17  15543.157476  14392.757953 -14164.963437    389.353892
PR18  23392.287303  10017.760849   2149.629179     62.426295
PR19  19114.759602   1235.159324  16849.963976   -126.977516
PR20   2070.548342 -10496.300187  23167.734544   -430.651383
PR21 -16404.261864 -14359.045497  13273.835884   -178.843727
PR22 -23358.065367  -9570.281104  -3315.411695    -91.321375
PR23 -13822.517440   3838.757146 -21091.365802    358.018998
PR24  -1374.766773  11255.409879 -22823.924535     26.983029
EOF
